[{"OBJECT_NAME":"WEILAI 1R","OBJECT_ID":"2019-093F","EPOCH":"2026-03-09T22:33:48.244608","MEAN_MOTION":14.997592,"ECCENTRICITY":0.00116762,"INCLINATION":97.7939,"RA_OF_ASC_NODE":158.7373,"ARG_OF_PERICENTER":23.5076,"MEAN_ANOMALY":336.6679,"EPHEMERIS_TYPE":0,"CLASSIFICATION_TYPE":"U","NORAD_CAT_ID":44884,"ELEMENT_SET_NO":999,"REV_AT_EPOCH":33754,"BSTAR":0.00050142794,"MEAN_MOTION_DOT":6.146e-5,"MEAN_MOTION_DDOT":0},{"OBJECT_NAME":"STARLINK-6326","OBJECT_ID":"2023-078W","EPOCH":"2026-03-09T22:36:03.602304","MEAN_MOTION":14.98329674,"ECCENTRICITY":0.0001755,"INCLINATION":70.0003,"RA_OF_ASC_NODE":323.7288,"ARG_OF_PERICENTER":274.6103,"MEAN_ANOMALY":85.4855,"EPHEMERIS_TYPE":0,"CLASSIFICATION_TYPE":"U","NORAD_CAT_ID":56787,"ELEMENT_SET_NO":999,"REV_AT_EPOCH":15321,"BSTAR":-3.0224546e-5,"MEAN_MOTION_DOT":-4.53e-6,"MEAN_MOTION_DDOT":0}]
